     2.11           N: GPS NAV DATA                         RINEX VERSION / TYPE
CONVBIN demo5                           20191109 203112 UTC PGM / RUN BY / DATE 
log: rover_201911091804.log                                 COMMENT             
format: u-blox                                              COMMENT             
                                                            END OF HEADER       
12 19 11  9 20  0  0.0  .185230746865E-03 -.397903932026E-11  .000000000000E+00
     .950000000000E+02 -.317500000000E+02  .452090259945E-08 -.447295367282E+00
    -.164471566677E-05  .753238645848E-02  .311993062496E-05  .515355135918E+04
     .590400000000E+06 -.204890966415E-07 -.161152665789E+01  .117346644402E-06
     .980504986060E+00  .329625000000E+03  .110327066916E+01 -.839713548868E-08
    -.282868925483E-09  .100000000000E+01  .207800000000E+04  .000000000000E+00
     .200000000000E+01  .000000000000E+00 -.125728547573E-07  .950000000000E+02
     .583506000000E+06  .400000000000E+01
25 19 11  9 20  0  0.0 -.169398263097E-04 -.454747350886E-12  .000000000000E+00
     .740000000000E+02 -.221875000000E+02  .479484258158E-08 -.853756720611E+00
    -.117905437946E-05  .855674094055E-02  .260025262833E-05  .515363127518E+04
     .590400000000E+06  .819563865662E-07 -.167797454754E+01  .214204192162E-06
     .967896620322E+00  .332031250000E+03  .888349557382E+00 -.851106880589E-08
    -.281083136812E-09  .100000000000E+01  .207800000000E+04  .000000000000E+00
     .200000000000E+01  .000000000000E+00  .558793544769E-08  .740000000000E+02
     .583506000000E+06  .400000000000E+01
 5 19 11  9 20  0  0.0 -.325916334987E-05 -.454747350886E-12  .000000000000E+00
     .230000000000E+02 -.251875000000E+02  .525021869268E-08 -.261957069497E+01
    -.153295695782E-05  .583050388377E-02  .407546758652E-05  .515353763390E+04
     .590400000000E+06  .540167093277E-07  .143262371128E+01 -.763684511185E-07
     .950500097379E+00  .295937500000E+03  .801855971308E+00 -.844606609827E-08
    -.314298806093E-10  .100000000000E+01  .207800000000E+04  .000000000000E+00
     .200000000000E+01  .000000000000E+00 -.111758708954E-07  .230000000000E+02
     .583506000000E+06  .400000000000E+01
24 19 11  9 20  0  0.0 -.464776530862E-05 -.454747350886E-12  .000000000000E+00
     .400000000000E+02  .986562500000E+02  .512449917025E-08  .108750197613E+01
     .532902777195E-05  .901246373542E-02  .865943729877E-05  .515367811203E+04
     .590400000000E+06  .558793544769E-08 -.278355467573E+01  .108033418655E-06
     .938002868065E+00  .198812500000E+03  .620037181735E+00 -.851535469870E-08
     .202508435289E-09  .100000000000E+01  .207800000000E+04  .000000000000E+00
     .200000000000E+01  .000000000000E+00  .279396772385E-08  .400000000000E+02
     .583506000000E+06  .400000000000E+01
29 19 11  9 20  0  0.0  .486113131046E-04 -.100044417195E-10  .000000000000E+00
     .540000000000E+02 -.683125000000E+02  .361443627006E-08 -.311466756442E+01
    -.342726707458E-05  .108344038017E-02  .114627182484E-04  .515367513847E+04
     .590400000000E+06 -.931322574615E-08 -.566096472167E+00 -.540167093277E-07
     .985964492464E+00  .173218750000E+03  .206208972334E+01 -.756638659894E-08
    -.213580325049E-09  .100000000000E+01  .207800000000E+04  .000000000000E+00
     .200000000000E+01  .000000000000E+00 -.977888703346E-08  .540000000000E+02
     .583506000000E+06  .400000000000E+01
21 19 11  9 20  0  0.0 -.887052156031E-04  .602540239925E-11  .000000000000E+00
     .850000000000E+02  .466875000000E+02  .475769817723E-08 -.102765994426E+01
     .264681875706E-05  .245400628773E-01  .963173806667E-05  .515362213135E+04
     .590400000000E+06 -.435858964920E-06  .351398503672E+00  .186264514923E-06
     .950848523503E+00  .197500000000E+03 -.139879105063E+01 -.849999691613E-08
     .632883504995E-09  .100000000000E+01  .207800000000E+04  .000000000000E+00
     .200000000000E+01  .000000000000E+00 -.102445483208E-07  .850000000000E+02
     .583506000000E+06  .400000000000E+01
 2 19 11  9 20  0  0.0 -.343443825841E-03 -.773070496507E-11  .000000000000E+00
     .730000000000E+02  .383750000000E+02  .460447750926E-08  .111724929467E+01
     .189617276192E-05  .193353154464E-01  .952742993832E-05  .515357245827E+04
     .590400000000E+06 -.339001417160E-06  .347986235549E+00 -.199303030968E-06
     .957008573100E+00  .195500000000E+03 -.170196659568E+01 -.836784855448E-08
     .513949979508E-09  .100000000000E+01  .207800000000E+04  .000000000000E+00
     .200000000000E+01  .000000000000E+00 -.176951289177E-07  .730000000000E+02
     .583506000000E+06  .400000000000E+01
15 19 11  9 20  0  0.0 -.273822806776E-03  .272848410532E-11  .000000000000E+00
     .550000000000E+02 -.481562500000E+02  .523271796371E-08  .211794063965E+01
    -.253319740295E-05  .119827870512E-01  .112615525723E-04  .515359911156E+04
     .590400000000E+06 -.203028321266E-06  .240943810174E+01 -.234693288803E-06
     .928093453058E+00  .146281250000E+03  .835913539520E+00 -.823962892790E-08
    -.369301097159E-09  .100000000000E+01  .207800000000E+04  .000000000000E+00
     .200000000000E+01  .000000000000E+00 -.111758708954E-07  .550000000000E+02
     .583506000000E+06  .400000000000E+01
31 19 11  9 20  0  0.0 -.209268182516E-05 -.261479726760E-11  .000000000000E+00
     .720000000000E+02  .880625000000E+02  .464626496416E-08 -.162447638825E+00
     .457093119621E-05  .951395847369E-02  .743754208088E-05  .515373060608E+04
     .590400000000E+06  .106170773506E-06 -.270008065937E+01  .186264514923E-08
     .959249134543E+00  .234937500000E+03  .576988012838E-01 -.826641575797E-08
     .257153568621E-09  .100000000000E+01  .207800000000E+04  .000000000000E+00
     .200000000000E+01  .000000000000E+00 -.135041773319E-07  .720000000000E+02
     .583506000000E+06  .400000000000E+01
20 19 11  9 20  0  0.0  .527421478182E-03  .113686837722E-12  .000000000000E+00
     .100000000000E+03 -.112812500000E+02  .569202280988E-08  .408300371555E+00
    -.659376382828E-06  .504474830814E-02  .357814133167E-05  .515361383438E+04
     .590400000000E+06  .428408384323E-07  .133442243863E+01 -.353902578354E-07
     .931655918980E+00  .294687500000E+03  .248075678299E+01 -.880750972528E-08
     .446447167745E-10  .100000000000E+01  .207800000000E+04  .000000000000E+00
     .200000000000E+01  .000000000000E+00 -.838190317154E-08  .100000000000E+03
     .583506000000E+06  .400000000000E+01
24 19 11  9 19 59 44.0 -.464636832476E-05 -.454747350886E-12  .000000000000E+00
     .147000000000E+03  .986562500000E+02  .512449917025E-08  .108516836870E+01
     .532902777195E-05  .901246292051E-02  .865943729877E-05  .515367811012E+04
     .590384000000E+06  .558793544769E-08 -.278355454115E+01  .108033418655E-06
     .938002860750E+00  .198812500000E+03  .620037047146E+00 -.851535469870E-08
     .202508435289E-09  .100000000000E+01  .207800000000E+04  .000000000000E+00
     .200000000000E+01  .000000000000E+00  .279396772385E-08  .147000000000E+03
     .583806000000E+06  .400000000000E+01
